start=new Date('2022-12-18T00:00:00.000Z').valueOf();
sats=[{"ELEMENT_SET_NO":"999","GP_ID":"220716142","COUNTRY_CODE":"US","ARG_OF_PERICENTER":"35.2177","MEAN_MOTION":"15.08833281","TLE_LINE2":"2 53004  53.2179 343.6600 0002337  35.2177 324.8969 15.08833281 25437","MEAN_ANOMALY":"324.8969","RA_OF_ASC_NODE":"343.6600","PERIAPSIS":"538.149","TIME_SYSTEM":"UTC","ECCENTRICITY":"0.00023370","INCLINATION":"53.2179","OBJECT_ID":"2022-076U","SITE":"AFETR","CENTER_NAME":"EARTH","DECAY_DATE":null,"REV_AT_EPOCH":"2543","CLASSIFICATION_TYPE":"U","OBJECT_TYPE":"PAYLOAD","REF_FRAME":"TEME","PERIOD":"95.438","EPOCH":"2022-12-17T09:35:55.400064","APOAPSIS":"541.383","BSTAR":"-0.00002633700000","LAUNCH_DATE":"2022-07-07","SEMIMAJOR_AXIS":"6917.901","MEAN_ELEMENT_THEORY":"SGP4","NORAD_CAT_ID":"53004","MEAN_MOTION_DDOT":"0.0000000000000","RCS_SIZE":"LARGE","TLE_LINE1":"1 53004U 22076U   22351.39994676 -.00000707  00000-0 -26337-4 0  9996","MEAN_MOTION_DOT":"-0.00000707","OBJECT_NAME":"STARLINK-4253","FILE":"3706213","EPHEMERIS_TYPE":"0"},{"ARG_OF_PERICENTER":"43.8890","MEAN_MOTION":"15.08840358","TLE_LINE2":"2 53005  53.2205 342.2586 0002169  43.8890 316.2274 15.08840358 25017","MEAN_ANOMALY":"316.2274","ELEMENT_SET_NO":"999","COUNTRY_CODE":"US","GP_ID":"220759206","ECCENTRICITY":"0.00021690","PERIAPSIS":"538.244","RA_OF_ASC_NODE":"342.2586","TIME_SYSTEM":"UTC","EPOCH":"2022-12-17T17:06:21.103200","OBJECT_TYPE":"PAYLOAD","REF_FRAME":"TEME","PERIOD":"95.438","OBJECT_ID":"2022-076V","INCLINATION":"53.2205","DECAY_DATE":null,"REV_AT_EPOCH":"2501","CENTER_NAME":"EARTH","CLASSIFICATION_TYPE":"U","SITE":"AFETR","OBJECT_NAME":"STARLINK-4288","RCS_SIZE":"LARGE","MEAN_MOTION_DOT":"0.00001767","TLE_LINE1":"1 53005U 22076V   22351.71274425  .00001767  00000-0  12909-3 0  9990","FILE":"3707070","EPHEMERIS_TYPE":"0","LAUNCH_DATE":"2022-07-07","BSTAR":"0.00012909000000","SEMIMAJOR_AXIS":"6917.879","APOAPSIS":"541.245","NORAD_CAT_ID":"53005","MEAN_MOTION_DDOT":"0.0000000000000","MEAN_ELEMENT_THEORY":"SGP4"},{"EPOCH":"2022-12-17T17:16:56.702208","REF_FRAME":"TEME","OBJECT_TYPE":"PAYLOAD","PERIOD":"95.438","CENTER_NAME":"EARTH","DECAY_DATE":null,"REV_AT_EPOCH":"2501","CLASSIFICATION_TYPE":"U","SITE":"AFETR","OBJECT_ID":"2022-076W","INCLINATION":"53.2207","FILE":"3707070","EPHEMERIS_TYPE":"0","OBJECT_NAME":"STARLINK-4290","RCS_SIZE":"LARGE","MEAN_MOTION_DOT":"-0.00000603","TLE_LINE1":"1 53006U 22076W   22351.72010072 -.00000603  00000-0 -19781-4 0  9994","NORAD_CAT_ID":"53006","MEAN_MOTION_DDOT":"0.0000000000000","MEAN_ELEMENT_THEORY":"SGP4","BSTAR":"-0.00001978100000","LAUNCH_DATE":"2022-07-07","SEMIMAJOR_AXIS":"6917.888","APOAPSIS":"541.213","MEAN_ANOMALY":"331.1412","ARG_OF_PERICENTER":"28.9697","TLE_LINE2":"2 53006  53.2207 342.2273 0002111  28.9697 331.1412 15.08837562 25012","MEAN_MOTION":"15.08837562","COUNTRY_CODE":"US","GP_ID":"220760272","ELEMENT_SET_NO":"999","ECCENTRICITY":"0.00021110","TIME_SYSTEM":"UTC","PERIAPSIS":"538.292","RA_OF_ASC_NODE":"342.2273"},{"INCLINATION":"53.2216","OBJECT_ID":"2022-076X","SITE":"AFETR","DECAY_DATE":null,"REV_AT_EPOCH":"2501","CLASSIFICATION_TYPE":"U","CENTER_NAME":"EARTH","REF_FRAME":"TEME","OBJECT_TYPE":"PAYLOAD","PERIOD":"95.439","EPOCH":"2022-12-17T16:55:46.924608","APOAPSIS":"541.263","BSTAR":"-0.00017762000000","LAUNCH_DATE":"2022-07-07","SEMIMAJOR_AXIS":"6917.942","MEAN_ELEMENT_THEORY":"SGP4","NORAD_CAT_ID":"53007","MEAN_MOTION_DDOT":"0.0000000000000","RCS_SIZE":"LARGE","MEAN_MOTION_DOT":"-0.00003112","TLE_LINE1":"1 53007U 22076X   22351.70540422 -.00003112  00000-0 -17762-3 0  9994","OBJECT_NAME":"STARLINK-4215","FILE":"3707070","EPHEMERIS_TYPE":"0","ELEMENT_SET_NO":"999","GP_ID":"220760485","COUNTRY_CODE":"US","ARG_OF_PERICENTER":"31.4121","TLE_LINE2":"2 53007  53.2216 342.2938 0002104  31.4121 328.6997 15.08819705 25012","MEAN_MOTION":"15.08819705","MEAN_ANOMALY":"328.6997","RA_OF_ASC_NODE":"342.2938","PERIAPSIS":"538.352","TIME_SYSTEM":"UTC","ECCENTRICITY":"0.00021040"},{"COUNTRY_CODE":"US","GP_ID":"220759419","ELEMENT_SET_NO":"999","MEAN_ANOMALY":"319.4102","MEAN_MOTION":"15.08832728","TLE_LINE2":"2 53008  53.2196 342.2703 0001947  40.7035 319.4102 15.08832728 25017","ARG_OF_PERICENTER":"40.7035","TIME_SYSTEM":"UTC","PERIAPSIS":"538.421","RA_OF_ASC_NODE":"342.2703","ECCENTRICITY":"0.00019470","CLASSIFICATION_TYPE":"U","DECAY_DATE":null,"REV_AT_EPOCH":"2501","CENTER_NAME":"EARTH","SITE":"AFETR","OBJECT_ID":"2022-076Y","INCLINATION":"53.2196","EPOCH":"2022-12-17T17:02:25.974240","PERIOD":"95.438","REF_FRAME":"TEME","OBJECT_TYPE":"PAYLOAD","MEAN_MOTION_DDOT":"0.0000000000000","NORAD_CAT_ID":"53008","MEAN_ELEMENT_THEORY":"SGP4","SEMIMAJOR_AXIS":"6917.903","BSTAR":"0.00003322200000","LAUNCH_DATE":"2022-07-07","APOAPSIS":"541.115","EPHEMERIS_TYPE":"0","FILE":"3707070","OBJECT_NAME":"STARLINK-4275","MEAN_MOTION_DOT":"0.00000241","TLE_LINE1":"1 53008U 22076Y   22351.71002285  .00000241  00000-0  33222-4 0  9994","RCS_SIZE":"LARGE"},{"PERIOD":"95.438","REF_FRAME":"TEME","OBJECT_TYPE":"PAYLOAD","EPOCH":"2022-12-17T16:35:53.164320","SITE":"AFETR","REV_AT_EPOCH":"2514","DECAY_DATE":null,"CLASSIFICATION_TYPE":"U","CENTER_NAME":"EARTH","INCLINATION":"53.2184","OBJECT_ID":"2022-076Z","EPHEMERIS_TYPE":"0","FILE":"3707070","TLE_LINE1":"1 53009U 22076Z   22351.69158755 -.00000646  00000-0 -22490-4 0  9992","MEAN_MOTION_DOT":"-0.00000646","RCS_SIZE":"LARGE","OBJECT_NAME":"STARLINK-4277","MEAN_ELEMENT_THEORY":"SGP4","MEAN_MOTION_DDOT":"0.0000000000000","NORAD_CAT_ID":"53009","APOAPSIS":"540.992","SEMIMAJOR_AXIS":"6917.906","BSTAR":"-0.00002249000000","LAUNCH_DATE":"2022-07-07","MEAN_ANOMALY":"326.7631","TLE_LINE2":"2 53009  53.2184 332.3592 0001766  33.3472 326.7631 15.08831706 25140","MEAN_MOTION":"15.08831706","ARG_OF_PERICENTER":"33.3472","GP_ID":"220759632","COUNTRY_CODE":"US","ELEMENT_SET_NO":"999","ECCENTRICITY":"0.00017660","TIME_SYSTEM":"UTC","RA_OF_ASC_NODE":"332.3592","PERIAPSIS":"538.549"},{"EPOCH":"2022-12-17T17:01:03.147744","PERIOD":"95.438","OBJECT_TYPE":"PAYLOAD","REF_FRAME":"TEME","OBJECT_ID":"2022-076AA","INCLINATION":"53.2194","REV_AT_EPOCH":"2501","DECAY_DATE":null,"CENTER_NAME":"EARTH","CLASSIFICATION_TYPE":"U","SITE":"AFETR","OBJECT_NAME":"STARLINK-4263","TLE_LINE1":"1 53010U 22076AA  22351.70906421  .00000578  00000-0  54420-4 0  9997","MEAN_MOTION_DOT":"0.00000578","RCS_SIZE":"LARGE","EPHEMERIS_TYPE":"0","FILE":"3707070","SEMIMAJOR_AXIS":"6917.899","BSTAR":"0.00005442000000","LAUNCH_DATE":"2022-07-07","APOAPSIS":"541.733","MEAN_MOTION_DDOT":"0.0000000000000","NORAD_CAT_ID":"53010","MEAN_ELEMENT_THEORY":"SGP4","MEAN_MOTION":"15.08833760","TLE_LINE2":"2 53010  53.2194 342.2714 0002845  31.2973 328.8188 15.08833760 25019","ARG_OF_PERICENTER":"31.2973","MEAN_ANOMALY":"328.8188","ELEMENT_SET_NO":"999","COUNTRY_CODE":"US","GP_ID":"220759846","ECCENTRICITY":"0.00028450","PERIAPSIS":"537.796","RA_OF_ASC_NODE":"342.2714","TIME_SYSTEM":"UTC"},{"SITE":"AFETR","REV_AT_EPOCH":"2514","DECAY_DATE":null,"CENTER_NAME":"EARTH","CLASSIFICATION_TYPE":"U","INCLINATION":"53.2180","OBJECT_ID":"2022-076AB","REF_FRAME":"TEME","OBJECT_TYPE":"PAYLOAD","PERIOD":"95.438","EPOCH":"2022-12-17T16:30:34.385472","MEAN_ELEMENT_THEORY":"SGP4","NORAD_CAT_ID":"53011","MEAN_MOTION_DDOT":"0.0000000000000","APOAPSIS":"541.273","LAUNCH_DATE":"2022-07-07","BSTAR":"-0.00002293200000","SEMIMAJOR_AXIS":"6917.889","FILE":"3707070","EPHEMERIS_TYPE":"0","RCS_SIZE":"LARGE","TLE_LINE1":"1 53011U 22076AB  22351.68789798 -.00000653  00000-0 -22932-4 0  9990","MEAN_MOTION_DOT":"-0.00000653","OBJECT_NAME":"STARLINK-4265","GP_ID":"220760060","COUNTRY_CODE":"US","ELEMENT_SET_NO":"999","MEAN_ANOMALY":"319.7534","ARG_OF_PERICENTER":"40.3621","MEAN_MOTION":"15.08837105","TLE_LINE2":"2 53011  53.2180 332.3859 0002196  40.3621 319.7534 15.08837105 25140","TIME_SYSTEM":"UTC","RA_OF_ASC_NODE":"332.3859","PERIAPSIS":"538.235","ECCENTRICITY":"0.00021960"},{"OBJECT_TYPE":"PAYLOAD","REF_FRAME":"TEME","PERIOD":"95.438","EPOCH":"2022-12-17T16:50:26.937024","SITE":"AFETR","DECAY_DATE":null,"CLASSIFICATION_TYPE":"U","REV_AT_EPOCH":"2501","CENTER_NAME":"EARTH","INCLINATION":"53.2205","OBJECT_ID":"2022-076AC","FILE":"3707070","EPHEMERIS_TYPE":"0","RCS_SIZE":"LARGE","MEAN_MOTION_DOT":"-0.00000350","TLE_LINE1":"1 53012U 22076AC  22351.70170066 -.00000350  00000-0 -38594-5 0  9992","OBJECT_NAME":"STARLINK-4271","MEAN_ELEMENT_THEORY":"SGP4","NORAD_CAT_ID":"53012","MEAN_MOTION_DDOT":"0.0000000000000","APOAPSIS":"541.506","BSTAR":"-0.00000385940000","LAUNCH_DATE":"2022-07-07","SEMIMAJOR_AXIS":"6917.890","MEAN_ANOMALY":"329.6540","ARG_OF_PERICENTER":"30.4599","MEAN_MOTION":"15.08836965","TLE_LINE2":"2 53012  53.2205 342.3172 0002531  30.4599 329.6540 15.08836965 25011","GP_ID":"220758993","COUNTRY_CODE":"US","ELEMENT_SET_NO":"999","ECCENTRICITY":"0.00025310","TIME_SYSTEM":"UTC","RA_OF_ASC_NODE":"342.3172","PERIAPSIS":"538.004"},{"TIME_SYSTEM":"UTC","PERIAPSIS":"538.472","RA_OF_ASC_NODE":"332.4214","ECCENTRICITY":"0.00018360","COUNTRY_CODE":"US","GP_ID":"220759207","ELEMENT_SET_NO":"999","MEAN_ANOMALY":"313.2404","TLE_LINE2":"2 53013  53.2171 332.4214 0001836  46.8742 313.2404 15.08840942 25141","MEAN_MOTION":"15.08840942","ARG_OF_PERICENTER":"46.8742","MEAN_MOTION_DDOT":"0.0000000000000","NORAD_CAT_ID":"53013","MEAN_ELEMENT_THEORY":"SGP4","SEMIMAJOR_AXIS":"6917.878","LAUNCH_DATE":"2022-07-07","BSTAR":"0.00011605000000","APOAPSIS":"541.013","EPHEMERIS_TYPE":"0","FILE":"3707070","OBJECT_NAME":"STARLINK-4177","TLE_LINE1":"1 53013U 22076AD  22351.68053916  .00001559  00000-0  11605-3 0  9996","MEAN_MOTION_DOT":"0.00001559","RCS_SIZE":"LARGE","CENTER_NAME":"EARTH","DECAY_DATE":null,"REV_AT_EPOCH":"2514","CLASSIFICATION_TYPE":"U","SITE":"AFETR","OBJECT_ID":"2022-076AD","INCLINATION":"53.2171","EPOCH":"2022-12-17T16:19:58.583424","PERIOD":"95.437","OBJECT_TYPE":"PAYLOAD","REF_FRAME":"TEME"}];
